[{"OBJECT_NAME":"STARLINK-3701","OBJECT_ID":"2022-029H","EPOCH":"2026-03-09T08:02:00.974400","MEAN_MOTION":15.08881034,"ECCENTRICITY":0.0001333,"INCLINATION":53.2166,"RA_OF_ASC_NODE":90.7152,"ARG_OF_PERICENTER":75.8541,"MEAN_ANOMALY":284.2599,"EPHEMERIS_TYPE":0,"CLASSIFICATION_TYPE":"U","NORAD_CAT_ID":52095,"ELEMENT_SET_NO":999,"REV_AT_EPOCH":22060,"BSTAR":0.00095088861,"MEAN_MOTION_DOT":0.00014895,"MEAN_MOTION_DDOT":0},{"OBJECT_NAME":"FENGYUN 1C DEB","OBJECT_ID":"1999-025BZZ","EPOCH":"2026-03-09T13:05:44.544480","MEAN_MOTION":14.97363263,"ECCENTRICITY":0.00745573,"INCLINATION":99.0712,"RA_OF_ASC_NODE":279.0573,"ARG_OF_PERICENTER":15.484,"MEAN_ANOMALY":344.8634,"EPHEMERIS_TYPE":0,"CLASSIFICATION_TYPE":"U","NORAD_CAT_ID":31619,"ELEMENT_SET_NO":999,"REV_AT_EPOCH":64782,"BSTAR":0.0036839182,"MEAN_MOTION_DOT":0.00045478,"MEAN_MOTION_DDOT":0}]
